GSAT0101 (PRN E11)      
1 37846U 11060A   22276.77023508 -.00000090  00000+0  00000+0 0  9995
2 37846  57.0331  18.3975 0000951  69.0426 290.9830  1.70474780 68063
GSAT0102 (PRN E12)      
1 37847U 11060B   22276.71372412 -.00000090  00000+0  00000+0 0  9991
2 37847  57.0340  18.3987 0001499 309.5111  62.6338  1.70475167 68076
GSAT0103 (PRN E19)      
1 38857U 12055A   22277.98269172  .00000032  00000+0  00000+0 0  9991
2 38857  55.1662 138.6870 0002058 248.7885 111.2853  1.70473650 61975
GSAT0104 (PRN E20)      
1 38858U 12055B   22278.53922051  .00000035  00000+0  00000+0 0  9999
2 38858  55.1668 138.6732 0000981 136.9702 223.1355  1.70473934 61984
GSAT0201 (PRN E18)      
1 40128U 14050A   22278.16512756 -.00000064  00000+0  00000+0 0  9998
2 40128  50.2076 327.9105 1619701 128.0395 247.7315  1.85519055 53250
GSAT0202 (PRN E14)      
1 40129U 14050B   22277.34775704 -.00000060  00000+0  00000+0 0  9998
2 40129  50.2317 327.0067 1616978 128.8200 246.7777  1.85519667 55402
GSAT0203 (PRN E26)      
1 40544U 15017A   22277.72332992 -.00000095  00000+0  00000+0 0  9991
2 40544  56.8285  18.3899 0003730 227.3889 132.5929  1.70476096 46161
GSAT0204 (PRN E22)      
1 40545U 15017B   22277.97630782 -.00000096  00000+0  00000+0 0  9998
2 40545  56.8346  18.3958 0004017 213.2533 146.7342  1.70475393  9215
GSAT0205 (PRN E24)      
1 40889U 15045A   22278.33021738  .00000011  00000+0  00000+0 0  9992
2 40889  55.5577 258.9270 0004281 352.2972   7.6798  1.70473021 43989
GSAT0206 (PRN E30)      
1 40890U 15045B   22277.37780862  .00000021  00000+0  00000+0 0  9998
2 40890  55.5580 258.9489 0003208 327.3414  32.6267  1.70473029 43997
GSAT0209 (PRN E09)      
1 41174U 15079A   22278.13852375  .00000033  00000+0  00000+0 0  9998
2 41174  55.1831 138.3871 0002435 337.8713  22.2146  1.70474094 41748
GSAT0208 (PRN E08)      
1 41175U 15079B   22278.35801776  .00000034  00000+0  00000+0 0  9993
2 41175  55.1816 138.3796 0001865 348.7820  11.3111  1.70473968 42161
GSAT0211 (PRN E02)      
1 41549U 16030A   22278.47680076  .00000010  00000+0  00000+0 0  9991
2 41549  55.7026 258.8633 0004734 311.2877  48.6542  1.70474573 39641
GSAT0210 (PRN E01)      
1 41550U 16030B   22278.18280809  .00000013  00000+0  00000+0 0  9994
2 41550  55.7026 258.8727 0004564 284.1200  75.8136  1.70474569 39631
GSAT0207 (PRN E07)      
1 41859U 16069A   22278.43235774  .00000033  00000+0  00000+0 0  9999
2 41859  54.8442 138.5331 0002228 311.5041  48.5743  1.70472669 36595
GSAT0212 (PRN E03)      
1 41860U 16069B   22278.28576711  .00000033  00000+0  00000+0 0  9993
2 41860  54.8413 138.5345 0001932  10.5942 349.5067  1.70472694 36622
GSAT0213 (PRN E04)      
1 41861U 16069C   22276.89129383  .00000029  00000+0  00000+0 0  9993
2 41861  54.8432 138.5785 0001893 265.3903  94.6808  1.70472870 36464
GSAT0214 (PRN E05)      
1 41862U 16069D   22278.21163185  .00000033  00000+0  00000+0 0  9995
2 41862  54.8420 138.5364 0000990 272.1218  87.9634  1.70472795 36612
GSAT0215 (PRN E21)      
1 43055U 17079A   22277.52819004  .00000019  00000+0  00000+0 0  9998
2 43055  55.6794 258.7202 0004000 279.5998  80.3421  1.70473783 29946
GSAT0216 (PRN E25)      
1 43056U 17079B   22277.23375222  .00000022  00000+0  00000+0 0  9990
2 43056  55.6799 258.7280 0005705 280.6588  79.2651  1.70473911 29955
GSAT0217 (PRN E27)      
1 43057U 17079C   22277.45401792  .00000020  00000+0  00000+0 0  9995
2 43057  55.6779 258.7215 0005198 290.8486  69.0831  1.70473893 29943
GSAT0218 (PRN E31)      
1 43058U 17079D   22278.26063688  .00000012  00000+0  00000+0 0  9995
2 43058  55.6773 258.6968 0006093 277.9797  81.9347  1.70473875 29987
GSAT0221 (PRN E15)      
1 43564U 18060A   22277.57289016 -.00000094  00000+0  00000+0 0  9997
2 43564  57.2105  18.2373 0003488 250.0565 109.9197  1.70476016 26123
GSAT0222 (PRN E33)      
1 43565U 18060B   22275.44643616 -.00000084  00000+0  00000+0 0  9991
2 43565  57.2119  18.2954 0002700 255.3668 104.6220  1.70475992 26134
GSAT0219 (PRN E36)      
1 43566U 18060C   22275.66697734 -.00000085  00000+0  00000+0 0  9997
2 43566  57.2124  18.2915 0002566 253.2750 106.7151  1.70475959 26114
GSAT0220 (PRN E13)      
1 43567U 18060D   22278.82008489 -.00000100  00000+0  00000+0 0  9990
2 43567  57.2130  18.2064 0002864 248.8534 111.1275  1.70475655 26152
GSAT0223                
1 49809U 21116A   22275.77817365 -.00000085  00000+0  00000+0 0  9995
2 49809  57.2044  18.1868 0003486 179.1833 203.9884  1.70475880  5110
GSAT0224                
1 49810U 21116B   22276.75500344 -.00000090  00000+0  00000+0 0  9998
2 49810  57.2058  18.1583 0002884 174.0534 201.0949  1.70475842  5157
